NORAD_CAT_ID,OBJECT_NAME,OBJECT_TYPE,EPOCH,MEAN_MOTION,ECCENTRICITY,INCLINATION,RA_OF_ASC_NODE,ARG_OF_PERICENTER,MEAN_ANOMALY,BSTAR,MEAN_MOTION_DOT,MEAN_MOTION_DDOT,TLE_LINE0,TLE_LINE1,TLE_LINE2,SEMIMAJOR_AXIS,PERIOD,APOGEE,PERIGEE,DECAYED
54790.0,STARLINK-5445,PAYLOAD,2023-06-01 09:59:37,15.08837943,0.0001132,53.2183,253.1815,79.4383,280.6736,3.7166e-05,3.04e-06,0.0,0 STARLINK-5445,1 54790U 22175AJ  23152.41640401  .00000304  00000-0  37166-4 0  9999,2 54790  53.2183 253.1815 0001132  79.4383 280.6736 15.08837943 27318,6917.887,95.438,540.535,538.969,0.0
54790.0,STARLINK-5445,PAYLOAD,2023-06-02 13:01:04,15.08923941,0.0002364,53.2182,248.1259,7.4549,352.6477,0.00070984,0.00011053,0.0,0 STARLINK-5445,1 54790U 22175AJ  23153.54241189  .00011053  00000-0  70984-3 0  9991,2 54790  53.2182 248.1259 0002364   7.4549 352.6477 15.08923941 27480,6917.624,95.432,541.124,537.854,0.0
54790.0,STARLINK-5445,PAYLOAD,2023-06-03 09:41:12,15.08824294,0.0001197,53.2181,244.2625,29.7149,330.3911,-7.4705e-05,-1.476e-05,0.0,0 STARLINK-5445,1 54790U 22175AJ  23154.40362006 -.00001476  00000-0 -74705-4 0  9995,2 54790  53.2181 244.2625 0001197  29.7149 330.3911 15.08824294 25451,6917.928,95.439,540.621,538.965,0.0
54790.0,STARLINK-5445,PAYLOAD,2023-06-03 12:51:58,15.08838691,8.85e-05,53.2174,243.6664,89.4589,270.6505,-4.8629e-05,-1.061e-05,0.0,0 STARLINK-5445,1 54790U 22175AJ  23154.53609015 -.00001061  00000-0 -48629-4 0  9999,2 54790  53.2174 243.6664 0000885  89.4589 270.6505 15.08838691 27636,6917.884,95.438,540.362,539.137,0.0
54790.0,STARLINK-5445,PAYLOAD,2023-06-04 12:42:45,15.08837981,8.05e-05,53.217,239.2061,92.7686,267.3398,8.3176e-05,1.036e-05,0.0,0 STARLINK-5445,1 54790U 22175AJ  23155.52968859  .00001036  00000-0  83176-4 0  9999,2 54790  53.2170 239.2061 0000805  92.7686 267.3398 15.08837981 27781,6917.887,95.438,540.308,539.195,0.0
54790.0,STARLINK-5445,PAYLOAD,2023-06-05 04:36:36,15.08839778,8.94e-05,53.2168,236.2323,93.3578,266.7516,5.2337e-05,5.45e-06,0.0,0 STARLINK-5445,1 54790U 22175AJ  23156.19208944  .00000545  00000-0  52337-4 0  9994,2 54790  53.2168 236.2323 0000894  93.3578 266.7516 15.08839778 25724,6917.881,95.438,540.365,539.128,0.0
54790.0,STARLINK-5445,PAYLOAD,2023-06-05 12:33:31,15.08845091,8.73e-05,53.2168,234.7458,98.8413,261.2678,8.8317e-05,1.118e-05,0.0,0 STARLINK-5445,1 54790U 22175AJ  23156.52328404  .00001118  00000-0  88317-4 0  9999,2 54790  53.2168 234.7458 0000873  98.8413 261.2678 15.08845091 27930,6917.865,95.437,540.334,539.126,0.0
54790.0,STARLINK-5445,PAYLOAD,2023-06-06 10:48:56,15.08835157,8.64e-05,53.2177,230.5844,84.2915,275.8175,-3.5596e-05,-8.54e-06,0.0,0 STARLINK-5445,1 54790U 22175AJ  23157.45065525 -.00000854  00000-0 -35596-4 0  9993,2 54790  53.2177 230.5844 0000864  84.2915 275.8175 15.08835157 28070,6917.895,95.438,540.358,539.162,0.0
54790.0,STARLINK-5445,PAYLOAD,2023-06-06 12:24:19,15.08837092,8.87e-05,53.2177,230.2871,83.5546,276.5547,-2.0113e-05,-6.08e-06,0.0,0 STARLINK-5445,1 54790U 22175AJ  23157.51689359 -.00000608  00000-0 -20113-4 0  9993,2 54790  53.2177 230.2871 0000887  83.5546 276.5547 15.08837092 25926,6917.889,95.438,540.368,539.141,0.0
54790.0,STARLINK-5445,PAYLOAD,2023-06-07 09:04:20,15.08838969,8.82e-05,53.2177,226.4213,93.843,266.2663,-3.0408e-05,-7.72e-06,0.0,0 STARLINK-5445,1 54790U 22175AJ  23158.37801249 -.00000772  00000-0 -30408-4 0  9992,2 54790  53.2177 226.4213 0000882  93.8430 266.2663 15.08838969 28218,6917.884,95.438,540.359,539.138,0.0
54790.0,STARLINK-5445,PAYLOAD,2023-06-07 21:47:25,15.0884102,9.35e-05,53.2165,224.0407,85.4591,274.6508,-4.8392e-05,-1.058e-05,0.0,0 STARLINK-5445,1 54790U 22175AJ  23158.90793160 -.00001058  00000-0 -48392-4 0  9992,2 54790  53.2165 224.0407 0000935  85.4591 274.6508 15.08841020 28299,6917.877,95.437,540.389,539.095,0.0
54790.0,STARLINK-5445,PAYLOAD,2023-06-08 10:30:30,15.08833289,0.0001171,53.2167,221.6633,69.9858,290.126,2.6809e-05,1.39e-06,0.0,0 STARLINK-5445,1 54790U 22175AJ  23159.43785608  .00000139  00000-0  26809-4 0  9995,2 54790  53.2167 221.6633 0001171  69.9858 290.1260 15.08833289 28376,6917.901,95.438,540.576,538.956,0.0
54790.0,STARLINK-5445,PAYLOAD,2023-06-09 10:21:17,15.08841673,0.0001078,53.2162,217.2023,73.413,286.6981,5.3579e-05,5.65e-06,0.0,0 STARLINK-5445,1 54790U 22175AJ  23160.43144937  .00000565  00000-0  53579-4 0  9998,2 54790  53.2162 217.2023 0001078  73.4130 286.6981 15.08841673 26367,6917.875,95.437,540.486,538.995,0.0
54790.0,STARLINK-5445,PAYLOAD,2023-06-10 02:15:09,15.0883317,9.32e-05,53.2161,214.227,76.4921,283.6175,-8.0898e-06,-4.16e-06,0.0,0 STARLINK-5445,1 54790U 22175AJ  23161.09385610 -.00000416  00000-0 -80898-5 0  9998,2 54790  53.2161 214.2270 0000932  76.4921 283.6175 15.08833170 26462,6917.901,95.438,540.411,539.122,0.0
54790.0,STARLINK-5445,PAYLOAD,2023-06-10 13:22:50,15.08837417,9.29e-05,53.2165,212.1455,80.2464,279.8633,-1.1263e-05,-4.67e-06,0.0,0 STARLINK-5445,1 54790U 22175AJ  23161.55753448 -.00000467  00000-0 -11263-4 0  9992,2 54790  53.2165 212.1455 0000929  80.2464 279.8633 15.08837417 28690,6917.888,95.438,540.396,539.111,0.0
54790.0,STARLINK-5445,PAYLOAD,2023-06-11 03:41:19,15.08838106,9.18e-05,53.2164,209.4688,78.4452,281.6643,-4.0048e-05,-9.25e-06,0.0,0 STARLINK-5445,1 54790U 22175AJ  23162.15369601 -.00000925  00000-0 -40048-4 0  9995,2 54790  53.2164 209.4688 0000918  78.4452 281.6643 15.08838106 26629,6917.886,95.438,540.386,539.116,0.0
54790.0,STARLINK-5445,PAYLOAD,2023-06-11 13:13:37,15.08841862,9.32e-05,53.2163,207.6848,77.7108,282.3989,-2.3901e-06,-3.26e-06,0.0,0 STARLINK-5445,1 54790U 22175AJ  23162.55113217 -.00000326  00000-0 -23901-5 0  9994,2 54790  53.2163 207.6848 0000932  77.7108 282.3989 15.08841862 28842,6917.875,95.437,540.384,539.095,0.0
54790.0,STARLINK-5445,PAYLOAD,2023-06-12 09:53:38,15.08835695,9.47e-05,53.2158,203.8195,79.7266,280.3833,4.0645e-05,3.59e-06,0.0,0 STARLINK-5445,1 54790U 22175AJ  23163.41225578  .00000359  00000-0  40645-4 0  9991,2 54790  53.2158 203.8195 0000947  79.7266 280.3833 15.08835695 28979,6917.894,95.438,540.414,539.103,0.0
54790.0,STARLINK-5445,PAYLOAD,2023-06-12 19:25:57,15.08834216,9.42e-05,53.2154,202.0354,78.2416,281.8681,2.2151e-06,-2.52e-06,0.0,0 STARLINK-5445,1 54790U 22175AJ  23163.80969892 -.00000252  00000-0  22151-5 0  9994,2 54790  53.2154 202.0354 0000942  78.2416 281.8681 15.08834216 26871,6917.898,95.438,540.415,539.111,0.0
54790.0,STARLINK-5445,PAYLOAD,2023-06-12 22:36:44,15.08831042,9.76e-05,53.2153,201.4414,87.064,273.0463,-6.7895e-06,-3.96e-06,0.0,0 STARLINK-5445,1 54790U 22175AJ  23163.94218160 -.00000396  00000-0 -67895-5 0  9998,2 54790  53.2153 201.4414 0000976  87.0640 273.0463 15.08831042 29052,6917.908,95.438,540.448,539.098,0.0
54790.0,STARLINK-5445,PAYLOAD,2023-06-13 03:22:54,15.08832178,9.78e-05,53.2153,200.5492,87.5661,272.5443,-3.6555e-05,-8.69e-06,0.0,0 STARLINK-5445,1 54790U 22175AJ  23164.14090288 -.00000869  00000-0 -36555-4 0  9993,2 54790  53.2153 200.5492 0000978  87.5661 272.5443 15.08832178 29084,6917.904,95.438,540.446,539.093,0.0
54790.0,STARLINK-5445,PAYLOAD,2023-06-13 19:16:45,15.0883725,0.0001019,53.2157,197.5761,90.5348,269.5761,-1.2833e-05,-4.92e-06,0.0,0 STARLINK-5445,1 54790U 22175AJ  23164.80330051 -.00000492  00000-0 -12833-4 0  9996,2 54790  53.2157 197.5761 0001019  90.5348 269.5761 15.08837250 29181,6917.889,95.438,540.459,539.049,0.0
54790.0,STARLINK-5445,PAYLOAD,2023-06-14 00:02:54,15.08836711,9.76e-05,53.2161,196.6843,91.9971,268.1133,3.2059e-05,2.22e-06,0.0,0 STARLINK-5445,1 54790U 22175AJ  23165.00201950  .00000222  00000-0  32059-4 0  9995,2 54790  53.2161 196.6843 0000976  91.9971 268.1133 15.08836711 27058,6917.89,95.438,540.431,539.08,0.0
54790.0,STARLINK-5445,PAYLOAD,2023-06-14 11:10:36,15.0883931,9.72e-05,53.216,194.6021,88.0488,272.0616,2.8624e-05,1.68e-06,0.0,0 STARLINK-5445,1 54790U 22175AJ  23165.46569854  .00000168  00000-0  28624-4 0  9997,2 54790  53.2160 194.6021 0000972  88.0488 272.0616 15.08839310 29284,6917.882,95.438,540.42,539.075,0.0
54790.0,STARLINK-5445,PAYLOAD,2023-06-14 19:07:32,15.08837906,9.69e-05,53.2161,193.1148,84.9555,275.1548,2.1017e-05,4.7e-07,0.0,0 STARLINK-5445,1 54790U 22175AJ  23165.79689983  .00000047  00000-0  21017-4 0  9994,2 54790  53.2161 193.1148 0000969  84.9555 275.1548 15.08837906 29338,6917.887,95.438,540.422,539.081,0.0
54790.0,STARLINK-5445,PAYLOAD,2023-06-15 01:29:04,15.08834183,9.7e-05,53.216,191.9248,86.587,273.5233,3.9658e-05,3.43e-06,0.0,0 STARLINK-5445,1 54790U 22175AJ  23166.06186182  .00000343  00000-0  39658-4 0  9997,2 54790  53.2160 191.9248 0000970  86.5870 273.5233 15.08834183 27216,6917.898,95.438,540.434,539.092,0.0
54790.0,STARLINK-5445,PAYLOAD,2023-06-15 09:26:00,15.08835132,9.79e-05,53.216,190.4377,86.9497,273.1607,3.5823e-05,2.82e-06,0.0,0 STARLINK-5445,1 54790U 22175AJ  23166.39306225  .00000282  00000-0  35823-4 0  9997,2 54790  53.2160 190.4377 0000979  86.9497 273.1607 15.08835132 29422,6917.895,95.438,540.438,539.083,0.0
54790.0,STARLINK-5445,PAYLOAD,2023-06-16 07:41:23,15.08843768,9.73e-05,53.216,186.2745,85.6557,274.4546,4.354e-05,4.05e-06,0.0,0 STARLINK-5445,1 54790U 22175AJ  23167.32041585  .00000405  00000-0  43540-4 0  9998,2 54790  53.2160 186.2745 0000973  85.6557 274.4546 15.08843768 27407,6917.869,95.437,540.407,539.061,0.0
54790.0,STARLINK-5445,PAYLOAD,2023-06-17 01:10:38,15.08837903,9.76e-05,53.216,183.0038,83.6777,276.4326,1.784e-05,-4e-08,0.0,0 STARLINK-5445,1 54790U 22175AJ  23168.04905887 -.00000004  00000-0  17840-4 0  9992,2 54790  53.2160 183.0038 0000976  83.6777 276.4326 15.08837903 27516,6917.887,95.438,540.427,539.077,0.0
54790.0,STARLINK-5445,PAYLOAD,2023-06-17 10:42:57,15.08837825,9.7e-05,53.2161,181.2193,86.2595,273.8508,7.3045e-07,-2.76e-06,0.0,0 STARLINK-5445,1 54790U 22175AJ  23168.44649944 -.00000276  00000-0  73045-6 0  9997,2 54790  53.2161 181.2193 0000970  86.2595 273.8508 15.08837825 29732,6917.887,95.438,540.423,539.081,0.0
